{"type": "FeatureCollection", "features": [{"type": "Feature", "properties": {"norad_id": 22490, "name": "SCD 1", "group": "resource", "lat": -19.594584863866594, "lon": -163.59420281217191, "alt_km": 730.1625691399613, "timestamp": "2025-12-17T23:38:06.519447+00:00", "meta": {"OBJECT_NAME": "SCD 1", "OBJECT_ID": "1993-009B", "EPOCH": "2025-12-17T09:42:49.057344", "MEAN_MOTION": 14.46002371, "ECCENTRICITY": 0.00419998, "INCLINATION": 24.9688, "RA_OF_ASC_NODE": 249.8901, "ARG_OF_PERICENTER": 14.4582, "MEAN_ANOMALY": 147.67, "EPHEMERIS_TYPE": 0, "CLASSIFICATION_TYPE": "U", "NORAD_CAT_ID": 22490, "ELEMENT_SET_NO": 999, "REV_AT_EPOCH": 73477, "BSTAR": 7.8463198e-05, "MEAN_MOTION_DOT": 4.72e-06, "MEAN_MOTION_DDOT": 0}, "tle": {"line1": "1 22490U 93009B   25351.40473446  .00000472  00000+0  78463-4 0  9990", "line2": "2 22490  24.9688 249.8901 0041999  14.4582 147.6700 14.46002371734776"}}, "geometry": {"type": "Point", "coordinates": [-163.59420281217191, -19.594584863866594]}}, {"type": "Feature", "properties": {"norad_id": 25397, "name": "TECHSAT 1B (GO-32)", "group": "resource", "lat": 48.52373453403878, "lon": -35.00102837183909, "alt_km": 804.789862114174, "timestamp": "2025-12-17T23:38:06.519475+00:00", "meta": {"OBJECT_NAME": "TECHSAT 1B (GO-32)", "OBJECT_ID": "1998-043D", "EPOCH": "2025-12-17T13:17:20.568192", "MEAN_MOTION": 14.24378479, "ECCENTRICITY": 0.00019235, "INCLINATION": 98.9923, "RA_OF_ASC_NODE": 334.877, "ARG_OF_PERICENTER": 49.549, "MEAN_ANOMALY": 310.5855, "EPHEMERIS_TYPE": 0, "CLASSIFICATION_TYPE": "U", "NORAD_CAT_ID": 25397, "ELEMENT_SET_NO": 999, "REV_AT_EPOCH": 42547, "BSTAR": 5.2315154e-05, "MEAN_MOTION_DOT": 7.4e-07, "MEAN_MOTION_DDOT": 0}, "tle": {"line1": "1 25397U 98043D   25351.55371028  .00000074  00000+0  52315-4 0  9997", "line2": "2 25397  98.9923 334.8770 0001923  49.5490 310.5855 14.24378479425474"}}, "geometry": {"type": "Point", "coordinates": [-35.00102837183909, 48.52373453403878]}}, {"type": "Feature", "properties": {"norad_id": 25504, "name": "SCD 2", "group": "resource", "lat": -12.641588131007225, "lon": 80.77602917145627, "alt_km": 730.9909814870689, "timestamp": "2025-12-17T23:38:06.519490+00:00", "meta": {"OBJECT_NAME": "SCD 2", "OBJECT_ID": "1998-060A", "EPOCH": "2025-12-17T15:35:50.466624", "MEAN_MOTION": 14.45426055, "ECCENTRICITY": 0.00168517, "INCLINATION": 24.9942, "RA_OF_ASC_NODE": 111.6188, "ARG_OF_PERICENTER": 5.6852, "MEAN_ANOMALY": 17.0271, "EPHEMERIS_TYPE": 0, "CLASSIFICATION_TYPE": "U", "NORAD_CAT_ID": 25504, "ELEMENT_SET_NO": 999, "REV_AT_EPOCH": 43403, "BSTAR": 5.8702746e-05, "MEAN_MOTION_DOT": 3.92e-06, "MEAN_MOTION_DDOT": 0}, "tle": {"line1": "1 25504U 98060A   25351.64988966  .00000392  00000+0  58703-4 0  9991", "line2": "2 25504  24.9942 111.6188 0016851   5.6852  17.0271 14.45426055434039"}}, "geometry": {"type": "Point", "coordinates": [80.77602917145627, -12.641588131007225]}}, {"type": "Feature", "properties": {"norad_id": 25757, "name": "DLR-TUBSAT", "group": "resource", "lat": 72.7399781482995, "lon": -52.70192209109185, "alt_km": 712.9472316768124, "timestamp": "2025-12-17T23:38:06.519503+00:00", "meta": {"OBJECT_NAME": "DLR-TUBSAT", "OBJECT_ID": "1999-029B", "EPOCH": "2025-12-17T13:22:10.787520", "MEAN_MOTION": 14.52359578, "ECCENTRICITY": 0.00141996, "INCLINATION": 98.6566, "RA_OF_ASC_NODE": 336.2196, "ARG_OF_PERICENTER": 177.8976, "MEAN_ANOMALY": 182.2281, "EPHEMERIS_TYPE": 0, "CLASSIFICATION_TYPE": "U", "NORAD_CAT_ID": 25757, "ELEMENT_SET_NO": 999, "REV_AT_EPOCH": 40688, "BSTAR": 3.7650132e-05, "MEAN_MOTION_DOT": 1.05e-06, "MEAN_MOTION_DDOT": 0}, "tle": {"line1": "1 25757U 99029B   25351.55706930  .00000105  00000+0  37650-4 0  9996", "line2": "2 25757  98.6566 336.2196 0014199 177.8976 182.2281 14.52359578406886"}}, "geometry": {"type": "Point", "coordinates": [-52.70192209109185, 72.7399781482995]}}, {"type": "Feature", "properties": {"norad_id": 25994, "name": "TERRA", "group": "resource", "lat": -59.861376874428956, "lon": 57.44829645136552, "alt_km": 699.4474935778271, "timestamp": "2025-12-17T23:38:06.519515+00:00", "meta": {"OBJECT_NAME": "TERRA", "OBJECT_ID": "1999-068A", "EPOCH": "2025-12-17T14:47:06.904032", "MEAN_MOTION": 14.60907456, "ECCENTRICITY": 0.00035802, "INCLINATION": 97.9743, "RA_OF_ASC_NODE": 43.1215, "ARG_OF_PERICENTER": 85.0056, "MEAN_ANOMALY": 76.0683, "EPHEMERIS_TYPE": 0, "CLASSIFICATION_TYPE": "U", "NORAD_CAT_ID": 25994, "ELEMENT_SET_NO": 999, "REV_AT_EPOCH": 38309, "BSTAR": 9.3061721e-05, "MEAN_MOTION_DOT": 4.11e-06, "MEAN_MOTION_DDOT": 0}, "tle": {"line1": "1 25994U 99068A   25351.61605213  .00000411  00000+0  93062-4 0  9990", "line2": "2 25994  97.9743  43.1215 0003580  85.0056  76.0683 14.60907456383091"}}, "geometry": {"type": "Point", "coordinates": [57.44829645136552, -59.861376874428956]}}, {"type": "Feature", "properties": {"norad_id": 27004, "name": "MAROC-TUBSAT", "group": "resource", "lat": 19.10345997079344, "lon": 157.09256581003976, "alt_km": 1008.37174748914, "timestamp": "2025-12-17T23:38:06.519527+00:00", "meta": {"OBJECT_NAME": "MAROC-TUBSAT", "OBJECT_ID": "2001-056D", "EPOCH": "2025-12-17T11:34:53.154624", "MEAN_MOTION": 13.70253185, "ECCENTRICITY": 0.00191365, "INCLINATION": 99.7912, "RA_OF_ASC_NODE": 160.0105, "ARG_OF_PERICENTER": 247.4964, "MEAN_ANOMALY": 175.6362, "EPHEMERIS_TYPE": 0, "CLASSIFICATION_TYPE": "U", "NORAD_CAT_ID": 27004, "ELEMENT_SET_NO": 999, "REV_AT_EPOCH": 20130, "BSTAR": 3.0798804e-05, "MEAN_MOTION_DOT": -2e-07, "MEAN_MOTION_DDOT": 0}, "tle": {"line1": "1 27004U 01056D   25351.48255966 -.00000020  00000+0  30799-4 0  9990", "line2": "2 27004  99.7912 160.0105 0019136 247.4964 175.6362 13.70253185201302"}}, "geometry": {"type": "Point", "coordinates": [157.09256581003976, 19.10345997079344]}}, {"type": "Feature", "properties": {"norad_id": 27424, "name": "AQUA", "group": "resource", "lat": -11.690464038963349, "lon": 131.19621128744504, "alt_km": 691.5012360794672, "timestamp": "2025-12-17T23:38:06.519538+00:00", "meta": {"OBJECT_NAME": "AQUA", "OBJECT_ID": "2002-022A", "EPOCH": "2025-12-17T15:20:20.387904", "MEAN_MOTION": 14.6182048, "ECCENTRICITY": 0.00012743, "INCLINATION": 98.4042, "RA_OF_ASC_NODE": 312.5979, "ARG_OF_PERICENTER": 113.5364, "MEAN_ANOMALY": 60.1013, "EPHEMERIS_TYPE": 0, "CLASSIFICATION_TYPE": "U", "NORAD_CAT_ID": 27424, "ELEMENT_SET_NO": 999, "REV_AT_EPOCH": 25674, "BSTAR": 0.00018278223, "MEAN_MOTION_DOT": 8.64e-06, "MEAN_MOTION_DDOT": 0}, "tle": {"line1": "1 27424U 02022A   25351.63912486  .00000864  00000+0  18278-3 0  9996", "line2": "2 27424  98.4042 312.5979 0001274 113.5364  60.1013 14.61820480256740"}}, "geometry": {"type": "Point", "coordinates": [131.19621128744504, -11.690464038963349]}}, {"type": "Feature", "properties": {"norad_id": 28051, "name": "IRS-P6 (RESOURCESAT-1)", "group": "resource", "lat": -67.30169537121259, "lon": 52.36149728042809, "alt_km": 805.7980854630923, "timestamp": "2025-12-17T23:38:06.519550+00:00", "meta": {"OBJECT_NAME": "IRS-P6 (RESOURCESAT-1)", "OBJECT_ID": "2003-046A", "EPOCH": "2025-12-17T16:06:57.905856", "MEAN_MOTION": 14.36077084, "ECCENTRICITY": 0.00644031, "INCLINATION": 98.2179, "RA_OF_ASC_NODE": 31.8503, "ARG_OF_PERICENTER": 165.9198, "MEAN_ANOMALY": 306.008, "EPHEMERIS_TYPE": 0, "CLASSIFICATION_TYPE": "U", "NORAD_CAT_ID": 28051, "ELEMENT_SET_NO": 999, "REV_AT_EPOCH": 15447, "BSTAR": 5.6783877e-05, "MEAN_MOTION_DOT": 1.28e-06, "MEAN_MOTION_DDOT": 0}, "tle": {"line1": "1 28051U 03046A   25351.67150354  .00000128  00000+0  56784-4 0  9990", "line2": "2 28051  98.2179  31.8503 0064403 165.9198 306.0080 14.36077084154478"}}, "geometry": {"type": "Point", "coordinates": [52.36149728042809, -67.30169537121259]}}, {"type": "Feature", "properties": {"norad_id": 28220, "name": "SHIYAN-1 (SY-1)", "group": "resource", "lat": 76.05010960142204, "lon": -92.2101820911841, "alt_km": 477.1220325226359, "timestamp": "2025-12-17T23:38:06.519560+00:00", "meta": {"OBJECT_NAME": "SHIYAN-1 (SY-1)", "OBJECT_ID": "2004-012A", "EPOCH": "2025-12-17T15:20:07.765728", "MEAN_MOTION": 15.28271597, "ECCENTRICITY": 0.00053297, "INCLINATION": 97.8937, "RA_OF_ASC_NODE": 53.467, "ARG_OF_PERICENTER": 306.0328, "MEAN_ANOMALY": 54.0416, "EPHEMERIS_TYPE": 0, "CLASSIFICATION_TYPE": "U", "NORAD_CAT_ID": 28220, "ELEMENT_SET_NO": 999, "REV_AT_EPOCH": 18331, "BSTAR": 0.00039273963, "MEAN_MOTION_DOT": 0.00010744, "MEAN_MOTION_DDOT": 0}, "tle": {"line1": "1 28220U 04012A   25351.63897877  .00010744  00000+0  39274-3 0  9995", "line2": "2 28220  97.8937  53.4670 0005329 306.0328  54.0416 15.28271597183318"}}, "geometry": {"type": "Point", "coordinates": [-92.2101820911841, 76.05010960142204]}}, {"type": "Feature", "properties": {"norad_id": 28376, "name": "AURA", "group": "resource", "lat": -52.60438612523524, "lon": -46.729182980312295, "alt_km": 697.8159149664516, "timestamp": "2025-12-17T23:38:06.519571+00:00", "meta": {"OBJECT_NAME": "AURA", "OBJECT_ID": "2004-026A", "EPOCH": "2025-12-17T14:01:00.669792", "MEAN_MOTION": 14.60957977, "ECCENTRICITY": 0.00013222, "INCLINATION": 98.319, "RA_OF_ASC_NODE": 301.8332, "ARG_OF_PERICENTER": 93.4235, "MEAN_ANOMALY": 266.7116, "EPHEMERIS_TYPE": 0, "CLASSIFICATION_TYPE": "U", "NORAD_CAT_ID": 28376, "ELEMENT_SET_NO": 999, "REV_AT_EPOCH": 13969, "BSTAR": 0.00018786832, "MEAN_MOTION_DOT": 8.73e-06, "MEAN_MOTION_DDOT": 0}, "tle": {"line1": "1 28376U 04026A   25351.58403553  .00000873  00000+0  18787-3 0  9998", "line2": "2 28376  98.3190 301.8332 0001322  93.4235 266.7116 14.60957977139694"}}, "geometry": {"type": "Point", "coordinates": [-46.729182980312295, -52.60438612523524]}}]}